TRANSIT 16 [?]          
1 02807U 67048A   22044.58119113  .00000074  00000+0  99053-4 0  9993
2 02807  89.6467  40.8492 0019666 193.4246 290.1150 13.50286908694057
TRANSIT 17 [?]          
1 02965U 67092A   22044.54151010  .00000079  00000+0  10118-3 0  9994
2 02965  89.2500 132.9450 0046431 336.9814  35.1635 13.52998929681885
TRANSIT 18 [?]          
1 03133U 68012A   22044.57710215  .00000064  00000+0  84650-4 0  9993
2 03133  89.9989 271.5770 0073425 259.8264 154.8869 13.51127673380367
NNSS 19 [?]             
1 04507U 70067A   22044.56100490  .00000115  00000+0  14912-3 0  9999
2 04507  89.9088 240.3666 0172983  23.4007 337.4897 13.50798358533431
NNSS O-20 [?]           
1 06909U 73081A   22044.37737353  .00000119  00000+0  11458-3 0  9995
2 06909  89.8148 279.8650 0155214 309.0918  49.6524 13.70639918612016
TRANSAT [?]             
1 10457U 77106A   22044.46935149  .00000049  00000+0  62745-4 0  9991
2 10457  89.6921 126.4266 0023339 262.9947 108.0091 13.48662540178958
NOVA I [?]              
1 12458U 81044A   22044.59119172  .00000037  00000+0  67795-4 0  9991
2 12458  89.8927 108.9979 0014122   7.6010 112.7272 13.23049144966961
NOVA 3 [?]              
1 15362U 84110A   22044.59889554  .00000027  00000+0  44863-4 0  9993
2 15362  90.0886  65.8572 0030515 221.1036 252.4106 13.22818758802131
OSCAR 30 [?]            
1 15935U 85066A   22044.58687685  .00000109  00000+0  17947-3 0  9993
2 15935  90.1700  75.7920 0170859  68.1116  49.2134 13.35736278777868
OSCAR 24 [?]            
1 15936U 85066B   22044.57292615  .00000093  00000+0  15034-3 0  9995
2 15936  90.1634  67.8385 0171370  73.6408  37.2902 13.35596277779782
POLAR BEAR [?]          
1 17070U 86088A   22044.55112873  .00000097  00000+0  89738-4 0  9993
2 17070  89.5507 243.3441 0039660  19.7820  32.1132 13.74847836767657
OSCAR 27 [?]            
1 18361U 87080A   22044.46052339  .00000056  00000+0  80571-4 0  9991
2 18361  90.3244  30.1645 0102462 268.4537  90.4872 13.44541241687653
OSCAR 29 [?]            
1 18362U 87080B   22044.55686113  .00000024  00000+0  27911-4 0  9999
2 18362  90.3255  30.4830 0104275 288.5594 194.9114 13.44131699687252
OSCAR 23 [?]            
1 19070U 88033A   22044.58493089  .00000086  00000+0  15315-3 0  9998
2 19070  90.3430 332.7322 0191705 107.8027  63.9403 13.27504106637019
OSCAR 32 [?]            
1 19071U 88033B   22044.59472214  .00000077  00000+0  13517-3 0  9999
2 19071  90.3431 332.8152 0190071  95.9319  75.7523 13.27685423637116
NOVA 11 [?]             
1 19223U 88052A   22044.57587084  .00000031  00000+0  52834-4 0  9995
2 19223  89.9685  81.2152 0028643 266.4646 208.1224 13.22735551624634
OSCAR 25 [?]            
1 19419U 88074A   22044.46716959  .00000053  00000+0  77835-4 0  9991
2 19419  90.0030  17.8305 0094458 274.7539 202.8786 13.42274325638800
OSCAR 31 [?]            
1 19420U 88074B   22044.48346478  .00000055  00000+0  81371-4 0  9992
2 19420  90.0040  17.9938 0092605 268.7443 214.3821 13.42288058638913
